{"fetched_at":"2026-07-07T07:58:50.970Z","source":"https://celestrak.org/NORAD/elements/gp.php?NAME=SENTINEL&FORMAT=JSON","constellation":"sentinel-1","records":[{"OBJECT_NAME":"SENTINEL-1A","OBJECT_ID":"2014-016A","EPOCH":"2026-07-06T20:12:08.553024","CLASSIFICATION_TYPE":"U","MEAN_MOTION":14.59199535,"ECCENTRICITY":0.0001396,"INCLINATION":98.1783,"RA_OF_ASC_NODE":195.0874,"ARG_OF_PERICENTER":86.1484,"MEAN_ANOMALY":273.9875,"EPHEMERIS_TYPE":0,"NORAD_CAT_ID":39634,"ELEMENT_SET_NO":999,"REV_AT_EPOCH":65288,"BSTAR":-0.000020371,"MEAN_MOTION_DOT":-0.00000142,"MEAN_MOTION_DDOT":0},{"OBJECT_NAME":"SENTINEL-1C","OBJECT_ID":"2024-235A","EPOCH":"2026-07-06T21:08:52.053792","CLASSIFICATION_TYPE":"U","MEAN_MOTION":14.59198206,"ECCENTRICITY":0.0001378,"INCLINATION":98.1824,"RA_OF_ASC_NODE":194.9085,"ARG_OF_PERICENTER":90.1941,"MEAN_ANOMALY":269.9416,"EPHEMERIS_TYPE":0,"NORAD_CAT_ID":62261,"ELEMENT_SET_NO":999,"REV_AT_EPOCH":8428,"BSTAR":0.000026752,"MEAN_MOTION_DOT":8e-7,"MEAN_MOTION_DDOT":0},{"OBJECT_NAME":"SENTINEL-1D","OBJECT_ID":"2025-251A","EPOCH":"2026-07-06T15:23:29.222016","CLASSIFICATION_TYPE":"U","MEAN_MOTION":14.59197663,"ECCENTRICITY":0.0001336,"INCLINATION":98.1836,"RA_OF_ASC_NODE":194.7271,"ARG_OF_PERICENTER":91.4611,"MEAN_ANOMALY":268.6741,"EPHEMERIS_TYPE":0,"NORAD_CAT_ID":66315,"ELEMENT_SET_NO":999,"REV_AT_EPOCH":3556,"BSTAR":-0.0000041357,"MEAN_MOTION_DOT":-6.5e-7,"MEAN_MOTION_DDOT":0}]}
