SENTINEL-1A             
1 39634U 14016A   26187.84176566 -.00000142  00000+0 -20371-4 0  9999
2 39634  98.1783 195.0874 0001396  86.1484 273.9875 14.59199535652888
SENTINEL-1C             
1 62261U 24235A   26187.88115803  .00000080  00000+0  26752-4 0  9994
2 62261  98.1824 194.9085 0001378  90.1941 269.9416 14.59198206 84284
SENTINEL-1D             
1 66315U 25251A   26187.64131044 -.00000065  00000+0 -41357-5 0  9990
2 66315  98.1836 194.7271 0001336  91.4611 268.6741 14.59197663 35568
